[{"OBJECT_NAME":"STARLINK-36184","OBJECT_ID":"2025-293U","EPOCH":"2026-03-09T11:28:32.819232","MEAN_MOTION":14.98351122,"ECCENTRICITY":0.00031945,"INCLINATION":70.0004,"RA_OF_ASC_NODE":95.0902,"ARG_OF_PERICENTER":270.1874,"MEAN_ANOMALY":89.8919,"EPHEMERIS_TYPE":0,"CLASSIFICATION_TYPE":"U","NORAD_CAT_ID":67021,"ELEMENT_SET_NO":999,"REV_AT_EPOCH":1485,"BSTAR":0.00039681348,"MEAN_MOTION_DOT":4.647e-5,"MEAN_MOTION_DDOT":0},{"OBJECT_NAME":"KUIPER-00203","OBJECT_ID":"2026-030K","EPOCH":"2026-03-09T22:00:01.999584","MEAN_MOTION":15.12119903,"ECCENTRICITY":0.00114753,"INCLINATION":51.8873,"RA_OF_ASC_NODE":219.0557,"ARG_OF_PERICENTER":61.3884,"MEAN_ANOMALY":261.5536,"EPHEMERIS_TYPE":0,"CLASSIFICATION_TYPE":"U","NORAD_CAT_ID":67773,"ELEMENT_SET_NO":999,"REV_AT_EPOCH":368,"BSTAR":-0.068919543,"MEAN_MOTION_DOT":-0.01112832,"MEAN_MOTION_DDOT":0}]
